{
    "links": {
        "self": "http://www.neowsapp.com/rest/v1/neo/3795141?api_key=iIulBulltgU6a56xZRHN4H3l9WmuAYTsLGpBGhQ2"
    },
    "id": "3795141",
    "neo_reference_id": "3795141",
    "name": "(2017 YU7)",
    "designation": "2017 YU7",
    "nasa_jpl_url": "http://ssd.jpl.nasa.gov/sbdb.cgi?sstr=3795141",
    "absolute_magnitude_h": 20.9,
    "estimated_diameter": {
        "kilometers": {
            "estimated_diameter_min": 0.1756123185,
            "estimated_diameter_max": 0.3926810818
        },
        "meters": {
            "estimated_diameter_min": 175.6123184804,
            "estimated_diameter_max": 392.6810818086
        },
        "miles": {
            "estimated_diameter_min": 0.1091204019,
            "estimated_diameter_max": 0.2440006365
        },
        "feet": {
            "estimated_diameter_min": 576.1559189633,
            "estimated_diameter_max": 1288.3238004408
        }
    },
    "is_potentially_hazardous_asteroid": false,
    "close_approach_data": [
        {
            "close_approach_date": "2000-12-13",
            "close_approach_date_full": "2000-Dec-13 15:37",
            "epoch_date_close_approach": 976721820000,
            "relative_velocity": {
                "kilometers_per_second": "26.7676960997",
                "kilometers_per_hour": "96363.7059589945",
                "miles_per_hour": "59876.6594054652"
            },
            "miss_distance": {
                "astronomical": "0.4731662678",
                "lunar": "184.0616781742",
                "kilometers": "70784665.818729586",
                "miles": "43983551.7953608468"
            },
            "orbiting_body": "Earth"
        },
        {
            "close_approach_date": "2017-12-15",
            "close_approach_date_full": "2017-Dec-15 21:20",
            "epoch_date_close_approach": 1513372800000,
            "relative_velocity": {
                "kilometers_per_second": "25.2022306119",
                "kilometers_per_hour": "90728.030202939",
                "miles_per_hour": "56374.8696558206"
            },
            "miss_distance": {
                "astronomical": "0.4711813738",
                "lunar": "183.2895544082",
                "kilometers": "70487729.904153806",
                "miles": "43799044.3737662828"
            },
            "orbiting_body": "Earth"
        },
        {
            "close_approach_date": "2096-04-08",
            "close_approach_date_full": "2096-Apr-08 22:02",
            "epoch_date_close_approach": 3984760920000,
            "relative_velocity": {
                "kilometers_per_second": "25.1785081285",
                "kilometers_per_hour": "90642.6292627501",
                "miles_per_hour": "56321.8048327349"
            },
            "miss_distance": {
                "astronomical": "0.01658852",
                "lunar": "6.45293428",
                "kilometers": "2481607.2584524",
                "miles": "1541999.24694712"
            },
            "orbiting_body": "Mars"
        }
    ],
    "orbital_data": {
        "orbit_id": "7",
        "orbit_determination_date": "2018-03-23 06:20:49",
        "first_observation_date": "2017-12-25",
        "last_observation_date": "2018-03-22",
        "data_arc_in_days": 87,
        "observations_used": 39,
        "orbit_uncertainty": "6",
        "minimum_orbit_intersection": ".458796",
        "jupiter_tisserand_invariant": "3.047",
        "epoch_osculation": "2459000.5",
        "eccentricity": ".4772433655003046",
        "semi_major_axis": "2.26370819816643",
        "inclination": "49.75875089032606",
        "ascending_node_longitude": "254.0801291534129",
        "orbital_period": "1244.024955125774",
        "perihelion_distance": "1.183368479162853",
        "perihelion_argument": "251.111741095061",
        "aphelion_distance": "3.344047917170008",
        "perihelion_time": "2459422.377493436556",
        "mean_anomaly": "237.9157146234215",
        "mean_motion": ".2893832623828702",
        "equinox": "J2000",
        "orbit_class": {
            "orbit_class_type": "AMO",
            "orbit_class_description": "Near-Earth asteroid orbits similar to that of 1221 Amor",
            "orbit_class_range": "1.017 AU < q (perihelion) < 1.3 AU"
        }
    },
    "is_sentry_object": false
}